IRIDIUM 33 DEB          
1 34765U 97051LJ  26063.79868745  .00001917  00000+0  59315-3 0  9991
2 34765  86.3441 357.5478 0014964 315.1597  73.1144 14.40737772887956
IRIDIUM 33 DEB          
1 34833U 97051MH  26064.07893550  .00004333  00000+0  10430-2 0  9990
2 34833  86.3970  15.4833 0019116 173.1758 309.5339 14.53006527889101
IRIDIUM 33 DEB          
1 34870U 97051MQ  26061.88326943  .00009814  00000+0  13451-2 0  9999
2 34870  86.3060 277.3223 0014730 275.7378 144.8425 14.78283800900948
IRIDIUM 33 DEB          
1 34896U 97051MY  26064.08009451  .00005120  00000+0  90130-3 0  9990
2 34896  86.3257 289.7375 0024143 299.3757 214.4851 14.67239039888261
IRIDIUM 33 DEB          
1 34926U 97051NF  26063.45186290  .00041535  00000+0  84548-2 0  9996
2 34926  86.1330 330.2608 0080243  17.9480  35.9019 14.58794511876468
IRIDIUM 33 DEB          
1 34985U 97051NR  26064.33000436  .00003716  00000+0  11148-2 0  9991
2 34985  86.3730  21.6231 0019940 318.3972 194.2622 14.42443504883656
IRIDIUM 33 DEB          
1 35051U 97051NX  26062.19624420  .00002674  00000+0  71394-3 0  9995
2 35051  86.3285 333.7982 0007886 165.3511 194.7923 14.48072669881609
IRIDIUM 33 DEB          
1 35052U 97051NY  26064.21638460  .00000824  00000+0  26249-3 0  9994
2 35052  86.3362 345.1291 0011728 161.9865 198.1752 14.38621551884611
IRIDIUM 33 DEB          
1 35080U 97051PF  26063.57973483  .00164931  00000+0  11929-1 0  9997
2 35080  86.2070  12.8377 0029339 236.8268 123.0151 15.02888093709092
IRIDIUM 33 DEB          
1 35297U 97051PM  26062.66907185  .00003100  00000+0  87194-3 0  9991
2 35297  86.3861  28.1932 0013455 231.0302 128.9703 14.45579710715954
IRIDIUM 33 DEB          
1 35299U 97051PP  26064.26346742  .00005298  00000+0  15938-2 0  9993
2 35299  86.2922 357.2435 0053738 187.9582 325.8501 14.41635591875197
IRIDIUM 33 DEB          
1 35480U 97051QA  26064.06023190  .00003114  00000+0  79407-3 0  9999
2 35480  86.3617 349.2201 0012822 180.2098 179.9103 14.50261027882249
IRIDIUM 33 DEB          
1 35484U 97051QE  26050.19184175  .00037506  00000+0  25740-2 0  9995
2 35484  86.3587 320.5585 0011587 239.1626 120.8470 15.05777687630433
IRIDIUM 33 DEB          
1 35488U 97051QJ  26064.00100523  .00012971  00000+0  14987-2 0  9999
2 35488  86.3189 262.8787 0027433 106.6605 253.7634 14.85220680894869
IRIDIUM 33 DEB          
1 35616U 97051QN  26062.00372993  .00013776  00000+0  16284-2 0  9998
2 35616  86.3536 309.0606 0006782 263.3407  96.7045 14.84547006887649
IRIDIUM 33 DEB          
1 35618U 97051QQ  26063.46654887  .00002274  00000+0  54635-3 0  9990
2 35618  86.3417 317.7694 0030547 101.7612 258.7023 14.52714174665806
