[{"OBJECT_NAME":"IRIDIUM 33 DEB","OBJECT_ID":"1997-051LJ","EPOCH":"2026-03-04T19:10:06.595680","MEAN_MOTION":14.40737772,"ECCENTRICITY":0.00149645,"INCLINATION":86.3441,"RA_OF_ASC_NODE":357.5478,"ARG_OF_PERICENTER":315.1597,"MEAN_ANOMALY":73.1144,"EPHEMERIS_TYPE":0,"CLASSIFICATION_TYPE":"U","NORAD_CAT_ID":34765,"ELEMENT_SET_NO":999,"REV_AT_EPOCH":88795,"BSTAR":0.00059314952,"MEAN_MOTION_DOT":1.917e-5,"MEAN_MOTION_DDOT":0},{"OBJECT_NAME":"IRIDIUM 33 DEB","OBJECT_ID":"1997-051MH","EPOCH":"2026-03-05T01:53:40.027200","MEAN_MOTION":14.53006527,"ECCENTRICITY":0.00191161,"INCLINATION":86.397,"RA_OF_ASC_NODE":15.4833,"ARG_OF_PERICENTER":173.1758,"MEAN_ANOMALY":309.5339,"EPHEMERIS_TYPE":0,"CLASSIFICATION_TYPE":"U","NORAD_CAT_ID":34833,"ELEMENT_SET_NO":999,"REV_AT_EPOCH":88910,"BSTAR":0.0010430264,"MEAN_MOTION_DOT":4.333e-5,"MEAN_MOTION_DDOT":0},{"OBJECT_NAME":"IRIDIUM 33 DEB","OBJECT_ID":"1997-051MQ","EPOCH":"2026-03-02T21:11:54.478752","MEAN_MOTION":14.782838,"ECCENTRICITY":0.001473,"INCLINATION":86.306,"RA_OF_ASC_NODE":277.3223,"ARG_OF_PERICENTER":275.7378,"MEAN_ANOMALY":144.8425,"EPHEMERIS_TYPE":0,"CLASSIFICATION_TYPE":"U","NORAD_CAT_ID":34870,"ELEMENT_SET_NO":999,"REV_AT_EPOCH":90094,"BSTAR":0.0013451,"MEAN_MOTION_DOT":9.814e-5,"MEAN_MOTION_DDOT":0},{"OBJECT_NAME":"IRIDIUM 33 DEB","OBJECT_ID":"1997-051MY","EPOCH":"2026-03-05T01:55:20.165664","MEAN_MOTION":14.67239039,"ECCENTRICITY":0.00241436,"INCLINATION":86.3257,"RA_OF_ASC_NODE":289.7375,"ARG_OF_PERICENTER":299.3757,"MEAN_ANOMALY":214.4851,"EPHEMERIS_TYPE":0,"CLASSIFICATION_TYPE":"U","NORAD_CAT_ID":34896,"ELEMENT_SET_NO":999,"REV_AT_EPOCH":88826,"BSTAR":0.0009012968,"MEAN_MOTION_DOT":5.12e-5,"MEAN_MOTION_DDOT":0},{"OBJECT_NAME":"IRIDIUM 33 DEB","OBJECT_ID":"1997-051NF","EPOCH":"2026-03-04T10:50:40.954560","MEAN_MOTION":14.58794511,"ECCENTRICITY":0.00802435,"INCLINATION":86.133,"RA_OF_ASC_NODE":330.2608,"ARG_OF_PERICENTER":17.948,"MEAN_ANOMALY":35.9019,"EPHEMERIS_TYPE":0,"CLASSIFICATION_TYPE":"U","NORAD_CAT_ID":34926,"ELEMENT_SET_NO":999,"REV_AT_EPOCH":87646,"BSTAR":0.0084547985,"MEAN_MOTION_DOT":0.00041535,"MEAN_MOTION_DDOT":0},{"OBJECT_NAME":"IRIDIUM 33 DEB","OBJECT_ID":"1997-051NR","EPOCH":"2026-03-05T07:55:12.376704","MEAN_MOTION":14.42443504,"ECCENTRICITY":0.00199409,"INCLINATION":86.373,"RA_OF_ASC_NODE":21.6231,"ARG_OF_PERICENTER":318.3972,"MEAN_ANOMALY":194.2622,"EPHEMERIS_TYPE":0,"CLASSIFICATION_TYPE":"U","NORAD_CAT_ID":34985,"ELEMENT_SET_NO":999,"REV_AT_EPOCH":88365,"BSTAR":0.0011147889,"MEAN_MOTION_DOT":3.716e-5,"MEAN_MOTION_DDOT":0},{"OBJECT_NAME":"IRIDIUM 33 DEB","OBJECT_ID":"1997-051NX","EPOCH":"2026-03-03T04:42:35.498880","MEAN_MOTION":14.48072669,"ECCENTRICITY":0.0007886,"INCLINATION":86.3285,"RA_OF_ASC_NODE":333.7982,"ARG_OF_PERICENTER":165.3511,"MEAN_ANOMALY":194.7923,"EPHEMERIS_TYPE":0,"CLASSIFICATION_TYPE":"U","NORAD_CAT_ID":35051,"ELEMENT_SET_NO":999,"REV_AT_EPOCH":88160,"BSTAR":0.00071393968,"MEAN_MOTION_DOT":2.674e-5,"MEAN_MOTION_DDOT":0},{"OBJECT_NAME":"IRIDIUM 33 DEB","OBJECT_ID":"1997-051NY","EPOCH":"2026-03-05T05:11:35.629440","MEAN_MOTION":14.38621551,"ECCENTRICITY":0.00117287,"INCLINATION":86.3362,"RA_OF_ASC_NODE":345.1291,"ARG_OF_PERICENTER":161.9865,"MEAN_ANOMALY":198.1752,"EPHEMERIS_TYPE":0,"CLASSIFICATION_TYPE":"U","NORAD_CAT_ID":35052,"ELEMENT_SET_NO":999,"REV_AT_EPOCH":88461,"BSTAR":0.00026248816,"MEAN_MOTION_DOT":8.24e-6,"MEAN_MOTION_DDOT":0},{"OBJECT_NAME":"IRIDIUM 33 DEB","OBJECT_ID":"1997-051PF","EPOCH":"2026-03-04T13:54:49.089312","MEAN_MOTION":15.02888093,"ECCENTRICITY":0.0029339,"INCLINATION":86.207,"RA_OF_ASC_NODE":12.8377,"ARG_OF_PERICENTER":236.8268,"MEAN_ANOMALY":123.0151,"EPHEMERIS_TYPE":0,"CLASSIFICATION_TYPE":"U","NORAD_CAT_ID":35080,"ELEMENT_SET_NO":999,"REV_AT_EPOCH":70909,"BSTAR":0.011929,"MEAN_MOTION_DOT":0.00164931,"MEAN_MOTION_DDOT":0},{"OBJECT_NAME":"IRIDIUM 33 DEB","OBJECT_ID":"1997-051PM","EPOCH":"2026-03-03T16:03:27.807840","MEAN_MOTION":14.4557971,"ECCENTRICITY":0.00134553,"INCLINATION":86.3861,"RA_OF_ASC_NODE":28.1932,"ARG_OF_PERICENTER":231.0302,"MEAN_ANOMALY":128.9703,"EPHEMERIS_TYPE":0,"CLASSIFICATION_TYPE":"U","NORAD_CAT_ID":35297,"ELEMENT_SET_NO":999,"REV_AT_EPOCH":71595,"BSTAR":0.00087193916,"MEAN_MOTION_DOT":3.1e-5,"MEAN_MOTION_DDOT":0},{"OBJECT_NAME":"IRIDIUM 33 DEB","OBJECT_ID":"1997-051PP","EPOCH":"2026-03-05T06:19:23.585088","MEAN_MOTION":14.41635591,"ECCENTRICITY":0.00537383,"INCLINATION":86.2922,"RA_OF_ASC_NODE":357.2435,"ARG_OF_PERICENTER":187.9582,"MEAN_ANOMALY":325.8501,"EPHEMERIS_TYPE":0,"CLASSIFICATION_TYPE":"U","NORAD_CAT_ID":35299,"ELEMENT_SET_NO":999,"REV_AT_EPOCH":87519,"BSTAR":0.0015937655,"MEAN_MOTION_DOT":5.298e-5,"MEAN_MOTION_DDOT":0},{"OBJECT_NAME":"IRIDIUM 33 DEB","OBJECT_ID":"1997-051QA","EPOCH":"2026-03-05T01:26:44.036160","MEAN_MOTION":14.50261027,"ECCENTRICITY":0.00128222,"INCLINATION":86.3617,"RA_OF_ASC_NODE":349.2201,"ARG_OF_PERICENTER":180.2098,"MEAN_ANOMALY":179.9103,"EPHEMERIS_TYPE":0,"CLASSIFICATION_TYPE":"U","NORAD_CAT_ID":35480,"ELEMENT_SET_NO":999,"REV_AT_EPOCH":88224,"BSTAR":0.00079406931,"MEAN_MOTION_DOT":3.114e-5,"MEAN_MOTION_DDOT":0},{"OBJECT_NAME":"IRIDIUM 33 DEB","OBJECT_ID":"1997-051QE","EPOCH":"2026-02-19T04:36:15.127200","MEAN_MOTION":15.05777687,"ECCENTRICITY":0.0011587,"INCLINATION":86.3587,"RA_OF_ASC_NODE":320.5585,"ARG_OF_PERICENTER":239.1626,"MEAN_ANOMALY":120.847,"EPHEMERIS_TYPE":0,"CLASSIFICATION_TYPE":"U","NORAD_CAT_ID":35484,"ELEMENT_SET_NO":999,"REV_AT_EPOCH":63043,"BSTAR":0.002574,"MEAN_MOTION_DOT":0.00037506,"MEAN_MOTION_DDOT":0},{"OBJECT_NAME":"IRIDIUM 33 DEB","OBJECT_ID":"1997-051QJ","EPOCH":"2026-03-05T00:01:26.851872","MEAN_MOTION":14.8522068,"ECCENTRICITY":0.00274331,"INCLINATION":86.3189,"RA_OF_ASC_NODE":262.8787,"ARG_OF_PERICENTER":106.6605,"MEAN_ANOMALY":253.7634,"EPHEMERIS_TYPE":0,"CLASSIFICATION_TYPE":"U","NORAD_CAT_ID":35488,"ELEMENT_SET_NO":999,"REV_AT_EPOCH":89486,"BSTAR":0.0014987308,"MEAN_MOTION_DOT":0.00012971,"MEAN_MOTION_DDOT":0},{"OBJECT_NAME":"IRIDIUM 33 DEB","OBJECT_ID":"1997-051QN","EPOCH":"2026-03-03T00:05:22.265952","MEAN_MOTION":14.84547006,"ECCENTRICITY":0.00067821,"INCLINATION":86.3536,"RA_OF_ASC_NODE":309.0606,"ARG_OF_PERICENTER":263.3407,"MEAN_ANOMALY":96.7045,"EPHEMERIS_TYPE":0,"CLASSIFICATION_TYPE":"U","NORAD_CAT_ID":35616,"ELEMENT_SET_NO":999,"REV_AT_EPOCH":88764,"BSTAR":0.0016284093,"MEAN_MOTION_DOT":0.00013776,"MEAN_MOTION_DDOT":0},{"OBJECT_NAME":"IRIDIUM 33 DEB","OBJECT_ID":"1997-051QQ","EPOCH":"2026-03-04T11:11:49.822368","MEAN_MOTION":14.52714174,"ECCENTRICITY":0.00305475,"INCLINATION":86.3417,"RA_OF_ASC_NODE":317.7694,"ARG_OF_PERICENTER":101.7612,"MEAN_ANOMALY":258.7023,"EPHEMERIS_TYPE":0,"CLASSIFICATION_TYPE":"U","NORAD_CAT_ID":35618,"ELEMENT_SET_NO":999,"REV_AT_EPOCH":66580,"BSTAR":0.00054634879,"MEAN_MOTION_DOT":2.274e-5,"MEAN_MOTION_DDOT":0}]
